OBJECT_NAME,OBJECT_ID,EPOCH,MEAN_MOTION,ECCENTRICITY,INCLINATION,RA_OF_ASC_NODE,ARG_OF_PERICENTER,MEAN_ANOMALY,EPHEMERIS_TYPE,CLASSIFICATION_TYPE,NORAD_CAT_ID,ELEMENT_SET_NO,REV_AT_EPOCH,BSTAR,MEAN_MOTION_DOT,MEAN_MOTION_DDOT
STARLINK-1176,2020-006AY,2025-07-29T06:00:02.000160,15.61602285,.0010034,53.0522,148.1727,49.0331,210.3485,0,U,45090,999,30364,.18848E-2,.168302E-2,0
STARLINK-1142,2020-006BB,2025-07-29T04:42:47.297664,15.42464224,.0002768,53.0431,132.5443,104.2854,255.8458,0,U,45093,999,30420,.14043E-2,.61831E-3,0
STARLINK-1146,2020-006BC,2025-07-28T22:00:01.999584,15.70594276,.0008146,53.0518,148.4770,62.6985,118.3589,0,U,45094,999,30396,.11697E-2,.14934E-2,0
STARLINK-1147,2020-006BD,2025-07-28T22:00:01.999584,15.70288437,.000463,53.0492,150.7579,88.7711,347.3158,0,U,45095,999,30392,.11444E-2,.143983E-2,0
STARLINK-1152,2020-006BE,2025-07-29T03:24:49.863456,15.17848210,.0003056,53.0525,161.7822,313.1651,46.9087,0,U,45096,999,30378,.90937E-3,.18368E-3,0
STARLINK-1184,2020-006BG,2025-07-28T14:15:48.683808,15.06396181,.0001374,53.0543,172.6213,88.3885,271.7261,0,U,45098,999,30179,.13307E-3,.1701E-4,0
STARLINK-1193,2020-006BJ,2025-07-29T02:54:49.309056,15.06399609,.0000985,53.0536,170.2559,86.6289,273.4813,0,U,45100,999,30367,-.58934E-5,-.369E-5,0
STARLINK-1143,2020-012B,2025-07-29T00:08:39.162048,15.27950034,.0002187,53.0608,312.3513,272.3734,87.7014,0,U,45179,999,30073,.81229E-3,.22169E-3,0
STARLINK-1200,2020-012D,2025-07-29T06:00:02.000160,15.80639153,.0011869,53.0558,305.2613,301.0765,2.2657,0,U,45181,999,30084,.99586E-3,.199169E-2,0
STARLINK-1201,2020-012E,2025-07-28T14:00:01.999872,15.77101196,.0014257,53.0506,287.0743,308.4994,93.5081,0,U,45182,999,602,.10381E-2,.176772E-2,0
STARLINK-1202,2020-012F,2025-07-28T14:05:11.272128,15.06407560,.0001477,53.0567,332.6555,96.9989,263.1168,0,U,45183,999,30106,.26158E-3,.3618E-4,0
STARLINK-1216,2020-012H,2025-07-28T15:30:06.617088,15.06389628,.000132,53.0555,332.3896,88.9964,271.1176,0,U,45185,999,30042,.48243E-5,-.21E-5,0
STARLINK-1224,2020-012J,2025-07-29T06:00:02.000160,15.78886552,.0011882,53.0489,305.3619,300.0362,60.3134,0,U,45186,999,30085,.89351E-3,.164211E-2,0
STARLINK-1225,2020-012K,2025-07-28T14:21:07.212960,15.06401509,.0001343,53.0553,332.6083,86.3883,273.7260,0,U,45187,999,30105,.25499E-3,.3519E-4,0
STARLINK-1228,2020-012L,2025-07-29T06:00:02.000160,15.80543521,.0010397,53.0418,244.3773,324.5807,20.4898,0,U,45188,999,30136,.65219E-2,.1431604E-1,0
STARLINK-1230,2020-012M,2025-07-29T01:35:11.650848,15.06412010,.0001163,53.0550,330.5072,73.0725,287.0392,0,U,45189,999,30019,-.5082E-3,-.7845E-4,0
STARLINK-1234,2020-012N,2025-07-29T05:12:49.562784,15.06392825,.0001242,53.0557,289.8256,92.8271,267.2860,0,U,45190,999,30073,.10395E-3,.1267E-4,0
STARLINK-1237,2020-012Q,2025-07-28T22:00:01.999584,15.80643970,.0011568,53.0580,307.2768,300.2114,282.3226,0,U,45192,999,30050,.61311E-3,.121266E-2,0
STARLINK-1240,2020-012S,2025-07-29T06:00:02.000160,15.74788212,.0013867,53.0514,304.3938,296.5985,305.0972,0,U,45194,999,30057,.11444E-2,.175962E-2,0
STARLINK-1244,2020-012U,2025-07-29T06:00:02.000160,15.77884190,.0012283,53.0496,305.2062,297.7592,342.3457,0,U,45196,999,30059,.93649E-3,.164586E-2,0
STARLINK-1269,2020-012V,2025-07-28T14:42:20.604672,15.06412241,.0001351,53.0559,332.5394,85.1725,274.9419,0,U,45197,999,30103,.39803E-3,.5654E-4,0
STARLINK-1154,2020-012W,2025-07-28T14:29:04.622208,15.06402458,.0001392,53.0564,312.5807,88.1845,271.9303,0,U,45198,999,30128,.21456E-3,.2916E-4,0
STARLINK-1199,2020-012Z,2025-07-29T00:18:14.725152,15.06414020,.0001309,53.0555,310.7463,88.2686,271.8453,0,U,45201,999,30046,.21275E-3,.289E-4,0
STARLINK-1206,2020-012AC,2025-07-29T06:00:02.000160,15.75457283,.0013289,53.0506,285.5138,308.8597,99.6716,0,U,45204,999,30083,.1038E-2,.163977E-2,0
STARLINK-1208,2020-012AD,2025-07-28T14:00:01.999872,15.71906164,.0014455,53.0486,288.4723,305.9495,356.6562,0,U,45205,999,601,.12509E-2,.169919E-2,0
STARLINK-1209,2020-012AE,2025-07-28T11:47:12.218496,15.06398597,.0001246,53.0544,293.0894,85.8727,274.2405,0,U,45206,999,30065,.22826E-3,.312E-4,0
STARLINK-1210,2020-012AF,2025-07-28T11:08:05.198784,15.37806278,.000402,53.0320,279.8202,51.5743,308.5620,0,U,45207,999,30179,.13923E-2,.52471E-3,0
STARLINK-1219,2020-012AJ,2025-07-29T06:00:02.000160,15.87906334,.0006754,53.0407,254.7522,306.5748,246.9345,0,U,45210,999,30126,.72924E-3,.20576E-2,0
STARLINK-1231,2020-012AL,2025-07-28T14:07:32.634624,15.06522864,.0001092,53.0553,312.6471,70.1825,289.9281,0,U,45212,999,30041,.73577E-3,.10731E-3,0
STARLINK-1271,2020-012AR,2025-07-28T23:56:59.678880,15.06404618,.0001183,53.0557,310.8075,78.8779,281.2343,0,U,45217,999,30046,.7514E-4,.838E-5,0
STARLINK-1191,2020-012AW,2025-07-28T13:01:29.275680,15.06409273,.0001191,53.0557,292.8543,88.9722,271.1403,0,U,45222,999,30161,.23718E-3,.3254E-4,0
STARLINK-1212,2020-012AX,2025-07-28T11:52:36.500160,15.06412380,.0001314,53.0547,293.7244,90.6046,269.5093,0,U,45223,999,30160,.34525E-3,.4866E-4,0
STARLINK-1215,2020-012AZ,2025-07-28T21:57:34.601184,15.06404754,.0001358,53.0540,291.1835,83.5568,276.5576,0,U,45225,999,30073,.19888E-3,.2682E-4,0
STARLINK-1217,2020-012BA,2025-07-29T03:57:13.994784,15.66138663,.0013049,53.0518,267.8342,321.8736,38.1354,0,U,45226,999,30104,.10352E-2,.10975E-2,0
STARLINK-1221,2020-012BB,2025-07-28T09:17:53.785248,15.33482169,.0004818,53.0674,245.3514,33.2123,326.9180,0,U,45227,999,30131,.27936E-3,.8807E-4,0
STARLINK-1222,2020-012BC,2025-07-28T13:12:06.903360,15.06399028,.0001306,53.0541,292.8198,92.8204,267.2934,0,U,45228,999,30150,.14324E-3,.1853E-4,0
STARLINK-1226,2020-012BD,2025-07-29T05:49:58.613664,15.06396895,.0001234,53.0538,289.7102,93.0140,267.0990,0,U,45229,999,30078,.2065E-3,.2795E-4,0
STARLINK-1227,2020-012BE,2025-07-29T05:44:39.850368,15.06392211,.000119,53.0548,289.7269,91.5026,268.6099,0,U,45230,999,30078,.75531E-4,.844E-5,0
STARLINK-1238,2020-012BH,2025-07-28T14:00:01.999872,15.70525371,.0014464,53.0465,289.3015,302.6491,100.3186,0,U,45233,999,600,.12291E-2,.157263E-2,0
STARLINK-1246,2020-012BK,2025-07-28T15:46:02.310816,15.06401562,.0001345,53.0572,332.3391,86.4775,273.6368,0,U,45235,999,30016,.75658E-4,.846E-5,0
STARLINK-1247,2020-012BL,2025-07-28T10:41:26.719296,15.70956913,.0013349,53.0480,269.8872,317.0467,42.9507,0,U,45236,999,30192,.92498E-3,.119731E-2,0
STARLINK-1270,2020-012BM,2025-07-28T22:13:30.490176,15.06404235,.0001173,53.0540,291.1345,85.6829,274.4294,0,U,45237,999,30073,.15631E-3,.2048E-4,0
STARLINK-1279,2020-019A,2025-07-28T21:13:47.400096,15.06398972,.0001483,53.0568,61.3164,91.2112,268.9047,0,U,45360,999,29640,.8448E-4,.977E-5,0
STARLINK-1301,2020-019B,2025-07-28T20:56:32.895744,15.06404011,.0001395,53.0553,71.3722,90.5902,269.5247,0,U,45361,999,29627,.13593E-3,.1744E-4,0
STARLINK-1306,2020-019C,2025-07-29T06:00:02.000160,15.25247793,.000183,53.0546,89.0927,57.6396,244.2175,0,U,45362,999,29605,.79714E-1,.2239643E-1,0
STARLINK-1262,2020-019G,2025-07-28T20:06:07.519392,15.06396256,.0001354,53.0542,91.5261,100.2355,259.8787,0,U,45366,999,29599,.48834E-4,.446E-5,0
STARLINK-1273,2020-019H,2025-07-29T01:24:35.491968,15.06399959,.0001198,53.0557,90.5410,95.7707,264.3418,0,U,45367,999,29602,.93169E-4,.1107E-4,0
STARLINK-1276,2020-019J,2025-07-28T19:55:30.556128,15.06400499,.0001434,53.0537,91.5650,89.9527,270.1627,0,U,45368,999,29599,.14806E-3,.1925E-4,0
STARLINK-1277,2020-019K,2025-07-28T19:45:00.175680,15.06402306,.0001357,53.0556,92.2273,87.9231,272.1914,0,U,45369,999,29598,.17385E-3,.2309E-4,0
STARLINK-1281,2020-019L,2025-07-28T19:39:34.863264,15.06399626,.0001259,53.0549,91.6122,88.9175,271.1958,0,U,45370,999,29596,.11625E-3,.1451E-4,0
STARLINK-1300,2020-019Q,2025-07-28T20:11:25.940544,15.06405816,.0001218,53.0536,91.5126,85.6806,274.4322,0,U,45374,999,29599,.32758E-3,.4602E-4,0
STARLINK-1302,2020-019R,2025-07-28T20:32:40.344864,15.06399963,.0001115,53.0535,91.4489,93.8335,266.2781,0,U,45375,999,29599,.58693E-3,.8472E-4,0
STARLINK-1304,2020-019S,2025-07-28T22:34:45.006816,15.06397688,.0001179,53.0554,91.0708,93.7724,266.3399,0,U,45376,999,29600,.17637E-3,.2346E-4,0
STARLINK-1305,2020-019T,2025-07-28T08:52:02.279712,15.06403453,.0001498,53.0542,93.6288,90.5033,269.6127,0,U,45377,999,29592,.26634E-3,.3688E-4,0
STARLINK-1319,2020-019V,2025-07-28T23:01:18.334272,15.06396295,.0001376,53.0532,90.9857,86.7883,273.3264,0,U,45379,999,29601,.32038E-3,.4493E-4,0
STARLINK-1258,2020-019X,2025-07-28T14:00:01.999872,15.71447387,.0005594,53.0495,47.8910,191.9107,186.2640,0,U,45381,999,585,.13148E-2,.174439E-2,0
STARLINK-1266,2020-019Z,2025-07-28T21:28:23.340576,15.06401942,.0001296,53.0546,71.2744,88.7867,271.3271,0,U,45383,999,29627,.17225E-3,.2285E-4,0
STARLINK-1267,2020-019AA,2025-07-28T08:22:58.595520,15.06392338,.0001311,53.0542,74.3793,89.9977,270.1162,0,U,45384,999,29618,.15468E-3,.2023E-4,0
STARLINK-1272,2020-019AC,2025-07-28T08:33:28.018656,15.06396724,.0001072,53.0546,73.6954,81.5811,278.5300,0,U,45386,999,29619,.16244E-3,.2139E-4,0
STARLINK-1274,2020-019AD,2025-07-28T23:27:22.873248,15.20657213,.0001995,53.0581,68.1381,170.7725,189.3307,0,U,45387,999,29630,.80931E-3,.17711E-3,0
STARLINK-1280,2020-019AE,2025-07-28T09:55:44.724576,15.06396322,.0001583,53.0535,93.4355,95.1809,264.9360,0,U,45388,999,29591,.32946E-3,.4629E-4,0
STARLINK-1283,2020-019AF,2025-07-28T06:15:27.811584,15.06393278,.0001091,53.0542,74.1176,89.7122,270.3992,0,U,45389,999,29618,.15187E-3,.1981E-4,0
STARLINK-1284,2020-019AG,2025-07-28T21:33:41.465376,15.06414871,.0001389,53.0538,71.2557,90.7682,269.3466,0,U,45390,999,29627,.461E-3,.6594E-4,0
STARLINK-1292,2020-019AL,2025-07-28T20:45:55.476288,15.52018325,.0001064,53.0546,65.3395,175.2693,184.8326,0,U,45394,999,29609,.17928E-2,.110898E-2,0
STARLINK-1297,2020-019AM,2025-07-28T08:06:54.939168,15.06387798,.00014,53.0553,73.7714,92.9060,267.2089,0,U,45395,999,29537,-.10015E-3,-.1772E-4,0
STARLINK-1307,2020-019AP,2025-07-28T20:40:37.481952,15.06401093,.0001391,53.0551,71.4205,95.9932,264.1216,0,U,45397,999,29609,.14346E-3,.1856E-4,0
